0 COSMOS 1275 DEB
1 13020U 81053ES  13282.77699795  .00000512  00000-0  49255-3 0  4494
2 13020 082.6954 188.0546 0120494 091.9127 322.7851 13.75032632593044
0 COSMOS 1275 DEB
1 13020U 81053ES  13287.72489712  .00000622  00000-0  60249-3 0  4511
2 13020 082.6952 184.2611 0120558 078.3427 335.3432 13.75037576593728
0 COSMOS 1275 DEB
1 13020U 81053ES  13290.14844831  .00000616  00000-0  59647-3 0  4522
2 13020 082.6947 182.4033 0120568 071.6985 092.1804 13.75041033594057
0 COSMOS 1275 DEB
1 13020U 81053ES  13292.17725135  .00000610  00000-0  59016-3 0  4537
2 13020 082.6944 180.8478 0120562 066.1297 055.0002 13.75043505594333
0 COSMOS 1275 DEB
1 13020U 81053ES  13294.71035221  .00000637  00000-0  61700-3 0  4542
2 13020 082.6942 178.9057 0120523 059.1865 354.1731 13.75047204594682
